D-STAR ONE (LIGHTSAT)   
1 44393U 19038H   21356.16161342  .00005797  00000-0  31696-3 0  9991
2 44393  97.6147 320.2756 0021963  29.6481 330.5990 15.14472037136187
AMGU-1 (AMURSAT)        
1 44394U 19038J   21355.84631271  .00004385  00000-0  24071-3 0  9990
2 44394  97.6090 319.9009 0022086  30.4776 329.7739 15.14466405136133
DOT-1                   
1 44399U 19038P   21355.86730161  .00004248  00000-0  24087-3 0  9990
2 44399  97.6172 319.1593 0025016  34.2353 326.0484 15.13268573136073
SOKRAT                  
1 44404U 19038U   21355.88635327  .00005881  00000-0  32267-3 0  9990
2 44404  97.6135 319.6577 0022296  32.2150 328.0438 15.14334229136126
LUCKY-7                 
1 44406U 19038W   21356.11646197  .00004891  00000-0  27429-3 0  9990
2 44406  97.6166 319.6881 0024631  26.1669 334.0801 15.13594076136120
D-STAR ONE (EXOCONNECT) 
1 44410U 19038AA  21355.86311433  .00009615  00000-0  50748-3 0  9997
2 44410  97.6098 320.1058 0021707  29.0094 331.2339 15.15544955136169
NARSSCUBE-2             
1 44415U 19022E   21355.90209789  .00004841  00000-0  16579-3 0  9990
2 44415  51.6409 255.2522 0011724 134.3793 225.8151 15.32017844132873
KRAKSAT                 
1 44427U 98067QM  21356.17537225  .00305117  46853-4  84131-3 0  9997
2 44427  51.6359  54.1425 0004582 353.0392  38.7561 15.93392121141076
NARSSCUBE-1             
1 44792U 98067QX  21354.68492049  .10040885  12438-4  82049-3 0  9997
2 44792  51.6150  67.9910 0004543 332.8387  27.2401 16.39000224118988
DUCHIFAT-3              
1 44854U 19089C   21356.22109548  .00001707  00000-0  14130-3 0  9997
2 44854  36.9656  69.9412 0007733 228.8091 131.2007 14.99878195111304
OPS-SAT                 
1 44878U 19092F   21355.73692650  .00005666  00000-0  28703-3 0  9992
2 44878  97.4739 176.6459 0012222 236.0616 123.9456 15.17313361111221
FLORIPASAT-1            
1 44885U 19093G   21356.13732637  .00000788  00000-0  10458-3 0  9994
2 44885  97.9143  73.6743 0015630  53.7238 306.5430 14.82514502108571
HUSKYSAT-1 (HO-107)     
1 45119U 19071J   21355.84248456  .00010235  00000-0  28017-3 0  9997
2 45119  51.6390 207.0605 0010033 243.3719 116.6238 15.37889473105987
G-SAT                   
1 45597U 98067RK  21355.71794453  .00064206  00000-0  58173-3 0  9991
2 45597  51.6373 104.6284 0003865 301.7200  58.3419 15.67423887 93875
QUETZAL-1               
1 45598U 98067RL  21355.69070903  .00117597  00000-0  76336-3 0  9999
2 45598  51.6364  98.4037 0003214 313.3905  46.6826 15.75115557 93885
BY70-2                  
1 45857U 20042B   21356.12363771  .00002652  00000-0  37689-3 0  9995
2 45857  97.9723  69.8708 0010089 334.0435  26.0319 14.77718896 79258
SALSAT                  
1 46495U 20068K   21355.93218009  .00000350  00000-0  29970-4 0  9991
2 46495  97.7110 292.5002 0016988 152.4453 207.7684 15.03712940 67505
NETSAT-4                
1 46504U 20068U   21355.80368221  .00000630  00000-0  52101-4 0  9993
2 46504  97.7078 291.2845 0010121 196.7622 163.3276 15.02427027 67368
NETSAT-3                
1 46505U 20068V   21355.88134907  .00001293  00000-0  10219-3 0  9993
2 46505  97.7077 291.3054 0009997 200.8376 159.2457 15.02406840 67380
NETSAT-1                
1 46506U 20068W   21355.82580338  .00001570  00000-0  12321-3 0  9995
2 46506  97.7061 291.1987 0009139 214.3389 145.7246 15.02369256 67373
NETSAT-2                
1 46507U 20068X   21355.83251160  .00001948  00000-0  15183-3 0  9993
2 46507  97.7066 291.1994 0008672 224.3323 135.7208 15.02348446 67327
BY70-3                  
1 46839U 20079N   21356.18334112  .00009779  00000-0  28403-3 0  9990
2 46839  97.2229  66.3348 0005340 244.2152 200.9161 15.35668892 62993
SPOC                    
1 46921U 98067RR  21355.62903084  .00039442  00000-0  47131-3 0  9991
2 46921  51.6390 119.0932 0000735  69.4775 290.6297 15.60609927 64028
BOBCAT-1                
1 46922U 98067RS  21355.70950991  .00067728  00000-0  63632-3 0  9992
2 46922  51.6404 112.9157 0000356 289.9126  70.1832 15.66509722 64073
NEUTRON-1               
1 46923U 98067RT  21355.59617742  .00039358  00000-0  47230-3 0  9998
2 46923  51.6398 119.6247 0000815  93.9554 266.1533 15.60500626 64048
1998-067RU              
1 46924U 98067RU  21355.70241218  .00709404  23245-3  15254-2 0  9998
2 46924  51.6253  96.1006 0007639 341.3193  18.7535 15.97862542 64334
DESCENT                 
1 46927U 98067RX  21355.85375134  .00040962  00000-0  48843-3 0  9991
2 46927  51.6400 118.3418 0001230 122.1715 237.9398 15.60648410 63990
UVSQ-SAT                
1 47438U 21006AB  21356.15630337  .00003974  00000-0  22348-3 0  9995
2 47438  97.4642  53.8329 0013030 162.8126 197.3549 15.13778816 50441
SOMP2B                  
1 47445U 21006AJ  21355.72950293  .00003761  00000-0  21290-3 0  9990
2 47445  97.4612  53.2103 0012513 168.0863 192.0667 15.13575860 50370
WARP-01                 
1 47924U 98067SA  21355.75304041  .00055785  00000-0  66872-3 0  9998
2 47924  51.6385 125.1371 0002591  98.4331 261.6956 15.60372373 43943
RSP-01                  
1 47925U 98067SB  21355.85825167  .00046668  00000-0  60771-3 0  9999
2 47925  51.6403 125.8626 0000976 344.1543  15.9419 15.58265230 43928
TAUSAT-1                
1 47926U 98067SC  21355.80876365  .00057957  00000-0  68326-3 0  9998
2 47926  51.6390 124.0155 0001681 338.8220  21.2704 15.60793627 43935
TSURU                   
1 47927U 98067SD  21355.59313807  .00038536  00000-0  52038-3 0  9997
2 47927  51.6399 127.8414 0001001 347.2344  12.8622 15.57381340 43870
STARS-EC                
1 47928U 98067SE  21355.81010769  .00066667  00000-0  77798-3 0  9990
2 47928  51.6391 124.7770 0002873 103.8646 256.2667 15.60998195 43917
MAYA-2                  
1 47929U 98067SF  21355.78126832  .00038801  00000-0  52354-3 0  9996
2 47929  51.6401 126.8453 0001131 344.8176  15.2782 15.57399351 43862
HIROGARI (OPUSAT-II)    
1 47930U 98067SG  21355.91820771  .00070582  00000-0  79840-3 0  9997
2 47930  51.6390 123.2620 0001480 305.2426  54.8429 15.61785022 43961
GUARANISAT-1            
1 47931U 98067SH  21355.64910921  .00039163  00000-0  52759-3 0  9995
2 47931  51.6403 127.4682 0001143 343.5933  16.5022 15.57437579 43886
DIY-1 (ARDUIQUBE)       
1 47963U 21022AH  21355.70107842  .00009568  00000-0  61138-3 0  9991
2 47963  97.5456 254.7004 0020154  28.4585 331.7739 15.08679632 40119
